[{"CCSDS_OMM_VERS":"3.0","COMMENT":"GENERATED VIA SPACE-TRACK.ORG API","CREATION_DATE":"2026-05-16T19:46:19","ORIGINATOR":"18 SPCS","OBJECT_NAME":"THORAD AGENA D DEB","OBJECT_ID":"1970-025DM","CENTER_NAME":"EARTH","REF_FRAME":"TEME","TIME_SYSTEM":"UTC","MEAN_ELEMENT_THEORY":"SGP4","EPOCH":"2026-05-16T12:52:08.492160","MEAN_MOTION":"13.73378932","ECCENTRICITY":"0.00510050","INCLINATION":"99.9208","RA_OF_ASC_NODE":"238.2399","ARG_OF_PERICENTER":"319.7377","MEAN_ANOMALY":"60.0210","EPHEMERIS_TYPE":"0","CLASSIFICATION_TYPE":"U","NORAD_CAT_ID":"4767","ELEMENT_SET_NO":"999","REV_AT_EPOCH":"79783","BSTAR":"0.00029907000000","MEAN_MOTION_DOT":"0.00000232","MEAN_MOTION_DDOT":"0.0000000000000","SEMIMAJOR_AXIS":"7365.602","PERIOD":"104.851","APOAPSIS":"1025.035","PERIAPSIS":"949.899","OBJECT_TYPE":"DEBRIS","RCS_SIZE":"MEDIUM","COUNTRY_CODE":"US","LAUNCH_DATE":"1970-04-08","SITE":"AFWTR","DECAY_DATE":null,"FILE":"5196726","GP_ID":"323494584","TLE_LINE0":"0 THORAD AGENA D DEB","TLE_LINE1":"1  4767U 70025DM  26136.53620940  .00000232  00000-0  29907-3 0  9992","TLE_LINE2":"2  4767  99.9208 238.2399 0051005 319.7377  60.0210 13.73378932797836"},{"CCSDS_OMM_VERS":"3.0","COMMENT":"GENERATED VIA SPACE-TRACK.ORG API","CREATION_DATE":"2026-05-16T17:43:08","ORIGINATOR":"18 SPCS","OBJECT_NAME":"THORAD AGENA D DEB","OBJECT_ID":"1970-025DN","CENTER_NAME":"EARTH","REF_FRAME":"TEME","TIME_SYSTEM":"UTC","MEAN_ELEMENT_THEORY":"SGP4","EPOCH":"2026-05-16T14:27:08.773632","MEAN_MOTION":"13.71727987","ECCENTRICITY":"0.00313838","INCLINATION":"100.1651","RA_OF_ASC_NODE":"180.1864","ARG_OF_PERICENTER":"100.0004","MEAN_ANOMALY":"53.4964","EPHEMERIS_TYPE":"0","CLASSIFICATION_TYPE":"U","NORAD_CAT_ID":"4768","ELEMENT_SET_NO":"999","REV_AT_EPOCH":"79352","BSTAR":"0.00025150436000","MEAN_MOTION_DOT":"0.00000179","MEAN_MOTION_DDOT":"0.0000000000000","SEMIMAJOR_AXIS":"7371.511","PERIOD":"104.977","APOAPSIS":"1016.510","PERIAPSIS":"970.241","OBJECT_TYPE":"DEBRIS","RCS_SIZE":"SMALL","COUNTRY_CODE":"US","LAUNCH_DATE":"1970-04-08","SITE":"AFWTR","DECAY_DATE":null,"FILE":"5196581","GP_ID":"323458095","TLE_LINE0":"0 THORAD AGENA D DEB","TLE_LINE1":"1 04768U 70025DN  26136.60218488  .00000179  00000-0  25150-3 0  9997","TLE_LINE2":"2 04768 100.1651 180.1864 0031384 100.0004  53.4964 13.71727987793522"},{"CCSDS_OMM_VERS":"3.0","COMMENT":"GENERATED VIA SPACE-TRACK.ORG API","CREATION_DATE":"2026-05-16T17:43:08","ORIGINATOR":"18 SPCS","OBJECT_NAME":"THORAD AGENA D DEB","OBJECT_ID":"1970-025DS","CENTER_NAME":"EARTH","REF_FRAME":"TEME","TIME_SYSTEM":"UTC","MEAN_ELEMENT_THEORY":"SGP4","EPOCH":"2026-05-16T08:44:09.513600","MEAN_MOTION":"13.26958351","ECCENTRICITY":"0.01787866","INCLINATION":"99.7599","RA_OF_ASC_NODE":"294.0305","ARG_OF_PERICENTER":"5.5132","MEAN_ANOMALY":"23.9782","EPHEMERIS_TYPE":"0","CLASSIFICATION_TYPE":"U","NORAD_CAT_ID":"4772","ELEMENT_SET_NO":"999","REV_AT_EPOCH":"69795","BSTAR":"0.00085444525000","MEAN_MOTION_DOT":"0.00000374","MEAN_MOTION_DDOT":"0.0000000000000","SEMIMAJOR_AXIS":"7536.395","PERIOD":"108.519","APOAPSIS":"1293.001","PERIAPSIS":"1023.519","OBJECT_TYPE":"DEBRIS","RCS_SIZE":"SMALL","COUNTRY_CODE":"US","LAUNCH_DATE":"1970-04-08","SITE":"AFWTR","DECAY_DATE":null,"FILE":"5196581","GP_ID":"323457595","TLE_LINE0":"0 THORAD AGENA D DEB","TLE_LINE1":"1 04772U 70025DS  26136.36399900  .00000374  00000-0  85445-3 0  9994","TLE_LINE2":"2 04772  99.7599 294.0305 0178787   5.5132  23.9782 13.26958351697957"},{"CCSDS_OMM_VERS":"3.0","COMMENT":"GENERATED VIA SPACE-TRACK.ORG API","CREATION_DATE":"2026-05-16T17:43:08","ORIGINATOR":"18 SPCS","OBJECT_NAME":"THORAD AGENA D DEB","OBJECT_ID":"1970-025DT","CENTER_NAME":"EARTH","REF_FRAME":"TEME","TIME_SYSTEM":"UTC","MEAN_ELEMENT_THEORY":"SGP4","EPOCH":"2026-05-16T15:17:52.243008","MEAN_MOTION":"13.57089546","ECCENTRICITY":"0.00297180","INCLINATION":"100.0272","RA_OF_ASC_NODE":"187.7615","ARG_OF_PERICENTER":"334.1354","MEAN_ANOMALY":"190.8915","EPHEMERIS_TYPE":"0","CLASSIFICATION_TYPE":"U","NORAD_CAT_ID":"4773","ELEMENT_SET_NO":"999","REV_AT_EPOCH":"76381","BSTAR":"0.00024399681000","MEAN_MOTION_DOT":"0.00000127","MEAN_MOTION_DDOT":"0.0000000000000","SEMIMAJOR_AXIS":"7424.425","PERIOD":"106.109","APOAPSIS":"1068.354","PERIAPSIS":"1024.226","OBJECT_TYPE":"DEBRIS","RCS_SIZE":"SMALL","COUNTRY_CODE":"US","LAUNCH_DATE":"1970-04-08","SITE":"AFWTR","DECAY_DATE":null,"FILE":"5196581","GP_ID":"323458096","TLE_LINE0":"0 THORAD AGENA D DEB","TLE_LINE1":"1 04773U 70025DT  26136.63741022  .00000127  00000-0  24400-3 0  9991","TLE_LINE2":"2 04773 100.0272 187.7615 0029718 334.1354 190.8915 13.57089546763816"},{"CCSDS_OMM_VERS":"3.0","COMMENT":"GENERATED VIA SPACE-TRACK.ORG API","CREATION_DATE":"2026-05-16T17:43:08","ORIGINATOR":"18 SPCS","OBJECT_NAME":"THORAD AGENA D DEB","OBJECT_ID":"1970-025DU","CENTER_NAME":"EARTH","REF_FRAME":"TEME","TIME_SYSTEM":"UTC","MEAN_ELEMENT_THEORY":"SGP4","EPOCH":"2026-05-16T14:48:44.339904","MEAN_MOTION":"13.82557662","ECCENTRICITY":"0.00426534","INCLINATION":"99.7466","RA_OF_ASC_NODE":"270.5085","ARG_OF_PERICENTER":"183.0419","MEAN_ANOMALY":"194.4950","EPHEMERIS_TYPE":"0","CLASSIFICATION_TYPE":"U","NORAD_CAT_ID":"4774","ELEMENT_SET_NO":"999","REV_AT_EPOCH":"78625","BSTAR":"0.00083344242000","MEAN_MOTION_DOT":"0.00000863","MEAN_MOTION_DDOT":"0.0000000000000","SEMIMAJOR_AXIS":"7332.966","PERIOD":"104.155","APOAPSIS":"986.109","PERIAPSIS":"923.553","OBJECT_TYPE":"DEBRIS","RCS_SIZE":"SMALL","COUNTRY_CODE":"US","LAUNCH_DATE":"1970-04-08","SITE":"AFWTR","DECAY_DATE":null,"FILE":"5196581","GP_ID":"323457596","TLE_LINE0":"0 THORAD AGENA D DEB","TLE_LINE1":"1 04774U 70025DU  26136.61717986  .00000863  00000-0  83344-3 0  9991","TLE_LINE2":"2 04774  99.7466 270.5085 0042653 183.0419 194.4950 13.82557662786253"},{"CCSDS_OMM_VERS":"3.0","COMMENT":"GENERATED VIA SPACE-TRACK.ORG API","CREATION_DATE":"2026-05-16T10:38:26","ORIGINATOR":"18 SPCS","OBJECT_NAME":"THORAD AGENA D DEB","OBJECT_ID":"1970-025DW","CENTER_NAME":"EARTH","REF_FRAME":"TEME","TIME_SYSTEM":"UTC","MEAN_ELEMENT_THEORY":"SGP4","EPOCH":"2026-05-15T20:31:11.741664","MEAN_MOTION":"14.02070359","ECCENTRICITY":"0.00180180","INCLINATION":"100.1343","RA_OF_ASC_NODE":"87.5017","ARG_OF_PERICENTER":"96.3798","MEAN_ANOMALY":"282.2199","EPHEMERIS_TYPE":"0","CLASSIFICATION_TYPE":"U","NORAD_CAT_ID":"4776","ELEMENT_SET_NO":"999","REV_AT_EPOCH":"73298","BSTAR":"0.00088242546000","MEAN_MOTION_DOT":"0.00001296","MEAN_MOTION_DDOT":"0.0000000000000","SEMIMAJOR_AXIS":"7264.772","PERIOD":"102.705","APOAPSIS":"899.726","PERIAPSIS":"873.547","OBJECT_TYPE":"DEBRIS","RCS_SIZE":"SMALL","COUNTRY_CODE":"US","LAUNCH_DATE":"1970-04-08","SITE":"AFWTR","DECAY_DATE":null,"FILE":"5196540","GP_ID":"323423897","TLE_LINE0":"0 THORAD AGENA D DEB","TLE_LINE1":"1 04776U 70025DW  26135.85499701  .00001296  00000-0  88243-3 0  9994","TLE_LINE2":"2 04776 100.1343  87.5017 0018018  96.3798 282.2199 14.02070359732989"},{"CCSDS_OMM_VERS":"3.0","COMMENT":"GENERATED VIA SPACE-TRACK.ORG API","CREATION_DATE":"2026-05-16T10:38:26","ORIGINATOR":"18 SPCS","OBJECT_NAME":"THORAD AGENA D DEB","OBJECT_ID":"1970-025DX","CENTER_NAME":"EARTH","REF_FRAME":"TEME","TIME_SYSTEM":"UTC","MEAN_ELEMENT_THEORY":"SGP4","EPOCH":"2026-05-16T07:03:24.622272","MEAN_MOTION":"13.91767385","ECCENTRICITY":"0.00109859","INCLINATION":"99.9393","RA_OF_ASC_NODE":"247.6625","ARG_OF_PERICENTER":"179.9484","MEAN_ANOMALY":"205.5239","EPHEMERIS_TYPE":"0","CLASSIFICATION_TYPE":"U","NORAD_CAT_ID":"4777","ELEMENT_SET_NO":"999","REV_AT_EPOCH":"80260","BSTAR":"0.00058465844000","MEAN_MOTION_DOT":"0.00000693","MEAN_MOTION_DDOT":"0.0000000000000","SEMIMAJOR_AXIS":"7300.581","PERIOD":"103.466","APOAPSIS":"930.466","PERIAPSIS":"914.425","OBJECT_TYPE":"DEBRIS","RCS_SIZE":"SMALL","COUNTRY_CODE":"US","LAUNCH_DATE":"1970-04-08","SITE":"AFWTR","DECAY_DATE":null,"FILE":"5196540","GP_ID":"323424397","TLE_LINE0":"0 THORAD AGENA D DEB","TLE_LINE1":"1 04777U 70025DX  26136.29403498  .00000693  00000-0  58466-3 0  9996","TLE_LINE2":"2 04777  99.9393 247.6625 0010986 179.9484 205.5239 13.91767385802609"},{"CCSDS_OMM_VERS":"3.0","COMMENT":"GENERATED VIA SPACE-TRACK.ORG API","CREATION_DATE":"2026-05-16T17:43:08","ORIGINATOR":"18 SPCS","OBJECT_NAME":"THORAD AGENA D DEB","OBJECT_ID":"1970-025DY","CENTER_NAME":"EARTH","REF_FRAME":"TEME","TIME_SYSTEM":"UTC","MEAN_ELEMENT_THEORY":"SGP4","EPOCH":"2026-05-16T10:27:07.363296","MEAN_MOTION":"13.55656513","ECCENTRICITY":"0.00363785","INCLINATION":"99.9645","RA_OF_ASC_NODE":"200.5143","ARG_OF_PERICENTER":"138.5860","MEAN_ANOMALY":"240.4116","EPHEMERIS_TYPE":"0","CLASSIFICATION_TYPE":"U","NORAD_CAT_ID":"4778","ELEMENT_SET_NO":"999","REV_AT_EPOCH":"76712","BSTAR":"0.00026212931000","MEAN_MOTION_DOT":"0.00000137","MEAN_MOTION_DDOT":"0.0000000000000","SEMIMAJOR_AXIS":"7429.656","PERIOD":"106.222","APOAPSIS":"1078.549","PERIAPSIS":"1024.493","OBJECT_TYPE":"DEBRIS","RCS_SIZE":"SMALL","COUNTRY_CODE":"US","LAUNCH_DATE":"1970-04-08","SITE":"AFWTR","DECAY_DATE":null,"FILE":"5196581","GP_ID":"323458098","TLE_LINE0":"0 THORAD AGENA D DEB","TLE_LINE1":"1 04778U 70025DY  26136.43550189  .00000137  00000-0  26213-3 0  9991","TLE_LINE2":"2 04778  99.9645 200.5143 0036379 138.5860 240.4116 13.55656513767125"}]